{
  "type": "FeatureCollection",
  "features": [
    {
      "type": "Feature",
      "properties": {
        "norad_id": 35711,
        "name": "COSMOS 2251 DEB",
        "group": "cosmos-2251-debris",
        "lat": 56.52669326542927,
        "lon": -134.51465198962472,
        "alt_km": 706.5964101398176,
        "timestamp": "2025-12-23T11:34:48.556910+00:00",
        "meta_object_name": "COSMOS 2251 DEB",
        "meta_object_id": "1993-036AQG",
        "meta_epoch": "2025-12-18T08:17:23.762688",
        "meta_mean_motion": 14.63815796,
        "meta_eccentricity": 0.00854507,
        "meta_inclination": 74.0458,
        "meta_ra_of_asc_node": 209.7036,
        "meta_arg_of_pericenter": 309.5008,
        "meta_mean_anomaly": 49.8625,
        "meta_ephemeris_type": 0,
        "meta_classification_type": "U",
        "meta_norad_cat_id": 35711,
        "meta_element_set_no": 999,
        "meta_rev_at_epoch": 87853,
        "meta_bstar": 0.00017154859,
        "meta_mean_motion_dot": 9.1e-06,
        "meta_mean_motion_ddot": 0,
        "tle_line1": "1 35711U 93036AQG 25352.34541392  .00000910  00000+0  17155-3 0  9997",
        "tle_line2": "2 35711  74.0458 209.7036 0085450 309.5008  49.8625 14.63815796878536"
      },
      "geometry": {
        "type": "Point",
        "coordinates": [
          -134.51465198962472,
          56.52669326542927
        ]
      }
    },
    {
      "type": "Feature",
      "properties": {
        "norad_id": 35716,
        "name": "COSMOS 2251 DEB",
        "group": "cosmos-2251-debris",
        "lat": -5.016507672458513,
        "lon": 172.20334924278256,
        "alt_km": 635.8086201034557,
        "timestamp": "2025-12-23T11:34:48.556919+00:00",
        "meta_object_name": "COSMOS 2251 DEB",
        "meta_object_id": "1993-036AQM",
        "meta_epoch": "2025-12-20T21:25:17.179680",
        "meta_mean_motion": 14.60094694,
        "meta_eccentricity": 0.00891235,
        "meta_inclination": 73.992,
        "meta_ra_of_asc_node": 178.6021,
        "meta_arg_of_pericenter": 17.4771,
        "meta_mean_anomaly": 49.6468,
        "meta_ephemeris_type": 0,
        "meta_classification_type": "U",
        "meta_norad_cat_id": 35716,
        "meta_element_set_no": 999,
        "meta_rev_at_epoch": 87746,
        "meta_bstar": 7.5856963e-05,
        "meta_mean_motion_dot": 3.53e-06,
        "meta_mean_motion_ddot": 0,
        "tle_line1": "1 35716U 93036AQM 25354.89255995  .00000353  00000+0  75857-4 0  9990",
        "tle_line2": "2 35716  73.9920 178.6021 0089123  17.4771  49.6468 14.60094694877461"
      },
      "geometry": {
        "type": "Point",
        "coordinates": [
          172.20334924278256,
          -5.016507672458513
        ]
      }
    },
    {
      "type": "Feature",
      "properties": {
        "norad_id": 35717,
        "name": "COSMOS 2251 DEB",
        "group": "cosmos-2251-debris",
        "lat": 9.764021241614083,
        "lon": -159.35680949510797,
        "alt_km": 724.4134656575034,
        "timestamp": "2025-12-23T11:34:48.556928+00:00",
        "meta_object_name": "COSMOS 2251 DEB",
        "meta_object_id": "1993-036AQN",
        "meta_epoch": "2025-12-22T07:09:37.342368",
        "meta_mean_motion": 14.38552439,
        "meta_eccentricity": 0.00775013,
        "meta_inclination": 74.1587,
        "meta_ra_of_asc_node": 200.0085,
        "meta_arg_of_pericenter": 56.63,
        "meta_mean_anomaly": 304.224,
        "meta_ephemeris_type": 0,
        "meta_classification_type": "U",
        "meta_norad_cat_id": 35717,
        "meta_element_set_no": 999,
        "meta_rev_at_epoch": 74237,
        "meta_bstar": 0.0010958575,
        "meta_mean_motion_dot": 3.447e-05,
        "meta_mean_motion_ddot": 0,
        "tle_line1": "1 35717U 93036AQN 25356.29834887  .00003447  00000+0  10959-2 0  9997",
        "tle_line2": "2 35717  74.1587 200.0085 0077501  56.6300 304.2240 14.38552439742374"
      },
      "geometry": {
        "type": "Point",
        "coordinates": [
          -159.35680949510797,
          9.764021241614083
        ]
      }
    },
    {
      "type": "Feature",
      "properties": {
        "norad_id": 35718,
        "name": "COSMOS 2251 DEB",
        "group": "cosmos-2251-debris",
        "lat": -21.53017246048836,
        "lon": -64.33457417155233,
        "alt_km": 664.8876685814703,
        "timestamp": "2025-12-23T11:34:48.556936+00:00",
        "meta_object_name": "COSMOS 2251 DEB",
        "meta_object_id": "1993-036AQP",
        "meta_epoch": "2025-12-23T00:51:17.244864",
        "meta_mean_motion": 14.68830838,
        "meta_eccentricity": 0.0009812,
        "meta_inclination": 74.0322,
        "meta_ra_of_asc_node": 110.044,
        "meta_arg_of_pericenter": 157.9795,
        "meta_mean_anomaly": 202.1798,
        "meta_ephemeris_type": 0,
        "meta_classification_type": "U",
        "meta_norad_cat_id": 35718,
        "meta_element_set_no": 999,
        "meta_rev_at_epoch": 65991,
        "meta_bstar": 0.0016839,
        "meta_mean_motion_dot": 9.825e-05,
        "meta_mean_motion_ddot": 0,
        "tle_line1": "1 35718U 93036AQP 25357.03561626  .00009825  00000+0  16839-2 0  9998",
        "tle_line2": "2 35718  74.0322 110.0440 0009812 157.9795 202.1798 14.68830838659915"
      },
      "geometry": {
        "type": "Point",
        "coordinates": [
          -64.33457417155233,
          -21.53017246048836
        ]
      }
    },
    {
      "type": "Feature",
      "properties": {
        "norad_id": 35721,
        "name": "COSMOS 2251 DEB",
        "group": "cosmos-2251-debris",
        "lat": -21.39302552019983,
        "lon": 151.48862689479054,
        "alt_km": 696.2491236840569,
        "timestamp": "2025-12-23T11:34:48.556945+00:00",
        "meta_object_name": "COSMOS 2251 DEB",
        "meta_object_id": "1993-036AQS",
        "meta_epoch": "2025-12-09T19:36:39.465216",
        "meta_mean_motion": 14.34317214,
        "meta_eccentricity": 0.01465875,
        "meta_inclination": 73.9489,
        "meta_ra_of_asc_node": 183.1196,
        "meta_arg_of_pericenter": 330.1589,
        "meta_mean_anomaly": 29.126,
        "meta_ephemeris_type": 0,
        "meta_classification_type": "U",
        "meta_norad_cat_id": 35721,
        "meta_element_set_no": 999,
        "meta_rev_at_epoch": 57747,
        "meta_bstar": 0.0018396061,
        "meta_mean_motion_dot": 5.808e-05,
        "meta_mean_motion_ddot": 0,
        "tle_line1": "1 35721U 93036AQS 25343.81712344  .00005808  00000+0  18396-2 0  9995",
        "tle_line2": "2 35721  73.9489 183.1196 0146587 330.1589  29.1260 14.34317214577479"
      },
      "geometry": {
        "type": "Point",
        "coordinates": [
          151.48862689479054,
          -21.39302552019983
        ]
      }
    },
    {
      "type": "Feature",
      "properties": {
        "norad_id": 35724,
        "name": "COSMOS 2251 DEB",
        "group": "cosmos-2251-debris",
        "lat": 57.46295716706286,
        "lon": 75.57004325355842,
        "alt_km": 663.880835034447,
        "timestamp": "2025-12-23T11:34:48.556955+00:00",
        "meta_object_name": "COSMOS 2251 DEB",
        "meta_object_id": "1993-036AQV",
        "meta_epoch": "2025-12-22T02:06:46.007136",
        "meta_mean_motion": 14.58219865,
        "meta_eccentricity": 0.0058953,
        "meta_inclination": 74.033,
        "meta_ra_of_asc_node": 284.8882,
        "meta_arg_of_pericenter": 75.7693,
        "meta_mean_anomaly": 285.001,
        "meta_ephemeris_type": 0,
        "meta_classification_type": "U",
        "meta_norad_cat_id": 35724,
        "meta_element_set_no": 999,
        "meta_rev_at_epoch": 87665,
        "meta_bstar": 0.00023860841,
        "meta_mean_motion_dot": 1.098e-05,
        "meta_mean_motion_ddot": 0,
        "tle_line1": "1 35724U 93036AQV 25356.08803249  .00001098  00000+0  23861-3 0  9997",
        "tle_line2": "2 35724  74.0330 284.8882 0058953  75.7693 285.0010 14.58219865876654"
      },
      "geometry": {
        "type": "Point",
        "coordinates": [
          75.57004325355842,
          57.46295716706286
        ]
      }
    },
    {
      "type": "Feature",
      "properties": {
        "norad_id": 35759,
        "name": "COSMOS 2251 DEB",
        "group": "cosmos-2251-debris",
        "lat": -50.732950549635646,
        "lon": 35.88466972481397,
        "alt_km": 671.6642763511727,
        "timestamp": "2025-12-23T11:34:48.556964+00:00",
        "meta_object_name": "COSMOS 2251 DEB",
        "meta_object_id": "1993-036ARD",
        "meta_epoch": "2025-12-20T20:13:43.592160",
        "meta_mean_motion": 14.64913481,
        "meta_eccentricity": 0.00772857,
        "meta_inclination": 74.0358,
        "meta_ra_of_asc_node": 200.4631,
        "meta_arg_of_pericenter": 316.7662,
        "meta_mean_anomaly": 42.7455,
        "meta_ephemeris_type": 0,
        "meta_classification_type": "U",
        "meta_norad_cat_id": 35759,
        "meta_element_set_no": 999,
        "meta_rev_at_epoch": 66254,
        "meta_bstar": 0.00015891508,
        "meta_mean_motion_dot": 8.54e-06,
        "meta_mean_motion_ddot": 0,
        "tle_line1": "1 35759U 93036ARD 25354.84286565  .00000854  00000+0  15892-3 0  9997",
        "tle_line2": "2 35759  74.0358 200.4631 0077285 316.7662  42.7455 14.64913481662545"
      },
      "geometry": {
        "type": "Point",
        "coordinates": [
          35.88466972481397,
          -50.732950549635646
        ]
      }
    }
  ]
}